<?xml version="1.0" encoding="UTF-8"?>
<ndm xmlns:xsi="http://www.w3.org/2001/XMLSchema-instance" xsi:noNamespaceSchemaLocation="https://sanaregistry.org/r/ndmxml_unqualified/ndmxml-2.0.0-master-2.0.xsd">
<omm id="CCSDS_OMM_VERS" version="2.0">
<header><CREATION_DATE/><ORIGINATOR/></header><body><segment><metadata><OBJECT_NAME>ONEWEB-0670</OBJECT_NAME><OBJECT_ID>2023-029AK</OBJECT_ID><CENTER_NAME>EARTH</CENTER_NAME><REF_FRAME>TEME</REF_FRAME><TIME_SYSTEM>UTC</TIME_SYSTEM><MEAN_ELEMENT_THEORY>SGP4</MEAN_ELEMENT_THEORY></metadata><data><meanElements><EPOCH>2023-10-25T21:17:47.922144</EPOCH><MEAN_MOTION>13.14505786</MEAN_MOTION><ECCENTRICITY>.0002276</ECCENTRICITY><INCLINATION>87.8954</INCLINATION><RA_OF_ASC_NODE>121.8642</RA_OF_ASC_NODE><ARG_OF_PERICENTER>74.4864</ARG_OF_PERICENTER><MEAN_ANOMALY>285.6517</MEAN_ANOMALY></meanElements><tleParameters><EPHEMERIS_TYPE>0</EPHEMERIS_TYPE><CLASSIFICATION_TYPE>U</CLASSIFICATION_TYPE><NORAD_CAT_ID>55829</NORAD_CAT_ID><ELEMENT_SET_NO>999</ELEMENT_SET_NO><REV_AT_EPOCH>3330</REV_AT_EPOCH><BSTAR>.12479E-2</BSTAR><MEAN_MOTION_DOT>.475E-5</MEAN_MOTION_DOT><MEAN_MOTION_DDOT>0</MEAN_MOTION_DDOT></tleParameters></data></segment></body></omm>
<omm id="CCSDS_OMM_VERS" version="2.0">
<header><CREATION_DATE/><ORIGINATOR/></header><body><segment><metadata><OBJECT_NAME>ONEWEB-0671</OBJECT_NAME><OBJECT_ID>2023-029AL</OBJECT_ID><CENTER_NAME>EARTH</CENTER_NAME><REF_FRAME>TEME</REF_FRAME><TIME_SYSTEM>UTC</TIME_SYSTEM><MEAN_ELEMENT_THEORY>SGP4</MEAN_ELEMENT_THEORY></metadata><data><meanElements><EPOCH>2023-10-25T14:41:56.251104</EPOCH><MEAN_MOTION>13.19711265</MEAN_MOTION><ECCENTRICITY>.000197</ECCENTRICITY><INCLINATION>87.9191</INCLINATION><RA_OF_ASC_NODE>137.1599</RA_OF_ASC_NODE><ARG_OF_PERICENTER>74.6226</ARG_OF_PERICENTER><MEAN_ANOMALY>285.5124</MEAN_ANOMALY></meanElements><tleParameters><EPHEMERIS_TYPE>0</EPHEMERIS_TYPE><CLASSIFICATION_TYPE>U</CLASSIFICATION_TYPE><NORAD_CAT_ID>55830</NORAD_CAT_ID><ELEMENT_SET_NO>999</ELEMENT_SET_NO><REV_AT_EPOCH>3223</REV_AT_EPOCH><BSTAR>.88237E-2</BSTAR><MEAN_MOTION_DOT>.3546E-4</MEAN_MOTION_DOT><MEAN_MOTION_DDOT>0</MEAN_MOTION_DDOT></tleParameters></data></segment></body></omm>
<omm id="CCSDS_OMM_VERS" version="2.0">
<header><CREATION_DATE/><ORIGINATOR/></header><body><segment><metadata><OBJECT_NAME>ONEWEB-0672</OBJECT_NAME><OBJECT_ID>2023-029AM</OBJECT_ID><CENTER_NAME>EARTH</CENTER_NAME><REF_FRAME>TEME</REF_FRAME><TIME_SYSTEM>UTC</TIME_SYSTEM><MEAN_ELEMENT_THEORY>SGP4</MEAN_ELEMENT_THEORY></metadata><data><meanElements><EPOCH>2023-10-25T14:00:01.000224</EPOCH><MEAN_MOTION>13.36112517</MEAN_MOTION><ECCENTRICITY>.0001568</ECCENTRICITY><INCLINATION>87.9346</INCLINATION><RA_OF_ASC_NODE>106.6486</RA_OF_ASC_NODE><ARG_OF_PERICENTER>47.4937</ARG_OF_PERICENTER><MEAN_ANOMALY>294.4551</MEAN_ANOMALY></meanElements><tleParameters><EPHEMERIS_TYPE>0</EPHEMERIS_TYPE><CLASSIFICATION_TYPE>U</CLASSIFICATION_TYPE><NORAD_CAT_ID>55831</NORAD_CAT_ID><ELEMENT_SET_NO>999</ELEMENT_SET_NO><REV_AT_EPOCH>3434</REV_AT_EPOCH><BSTAR>0</BSTAR><MEAN_MOTION_DOT>.14E-6</MEAN_MOTION_DOT><MEAN_MOTION_DDOT>0</MEAN_MOTION_DDOT></tleParameters></data></segment></body></omm>
<omm id="CCSDS_OMM_VERS" version="2.0">
<header><CREATION_DATE/><ORIGINATOR/></header><body><segment><metadata><OBJECT_NAME>ONEWEB-0673</OBJECT_NAME><OBJECT_ID>2023-029AN</OBJECT_ID><CENTER_NAME>EARTH</CENTER_NAME><REF_FRAME>TEME</REF_FRAME><TIME_SYSTEM>UTC</TIME_SYSTEM><MEAN_ELEMENT_THEORY>SGP4</MEAN_ELEMENT_THEORY></metadata><data><meanElements><EPOCH>2023-10-25T14:07:49.143936</EPOCH><MEAN_MOTION>13.19729934</MEAN_MOTION><ECCENTRICITY>.0002006</ECCENTRICITY><INCLINATION>87.9089</INCLINATION><RA_OF_ASC_NODE>137.1760</RA_OF_ASC_NODE><ARG_OF_PERICENTER>80.8417</ARG_OF_PERICENTER><MEAN_ANOMALY>279.2943</MEAN_ANOMALY></meanElements><tleParameters><EPHEMERIS_TYPE>0</EPHEMERIS_TYPE><CLASSIFICATION_TYPE>U</CLASSIFICATION_TYPE><NORAD_CAT_ID>55832</NORAD_CAT_ID><ELEMENT_SET_NO>999</ELEMENT_SET_NO><REV_AT_EPOCH>3225</REV_AT_EPOCH><BSTAR>.83526E-3</BSTAR><MEAN_MOTION_DOT>.347E-5</MEAN_MOTION_DOT><MEAN_MOTION_DDOT>0</MEAN_MOTION_DDOT></tleParameters></data></segment></body></omm>
<omm id="CCSDS_OMM_VERS" version="2.0">
<header><CREATION_DATE/><ORIGINATOR/></header><body><segment><metadata><OBJECT_NAME>ONEWEB-0674</OBJECT_NAME><OBJECT_ID>2023-029AP</OBJECT_ID><CENTER_NAME>EARTH</CENTER_NAME><REF_FRAME>TEME</REF_FRAME><TIME_SYSTEM>UTC</TIME_SYSTEM><MEAN_ELEMENT_THEORY>SGP4</MEAN_ELEMENT_THEORY></metadata><data><meanElements><EPOCH>2023-10-25T13:07:24.653568</EPOCH><MEAN_MOTION>13.13952544</MEAN_MOTION><ECCENTRICITY>.0002564</ECCENTRICITY><INCLINATION>87.8948</INCLINATION><RA_OF_ASC_NODE>121.9470</RA_OF_ASC_NODE><ARG_OF_PERICENTER>78.9049</ARG_OF_PERICENTER><MEAN_ANOMALY>281.2369</MEAN_ANOMALY></meanElements><tleParameters><EPHEMERIS_TYPE>0</EPHEMERIS_TYPE><CLASSIFICATION_TYPE>U</CLASSIFICATION_TYPE><NORAD_CAT_ID>55833</NORAD_CAT_ID><ELEMENT_SET_NO>999</ELEMENT_SET_NO><REV_AT_EPOCH>3323</REV_AT_EPOCH><BSTAR>-.16526E-2</BSTAR><MEAN_MOTION_DOT>-.595E-5</MEAN_MOTION_DOT><MEAN_MOTION_DDOT>0</MEAN_MOTION_DDOT></tleParameters></data></segment></body></omm>
<omm id="CCSDS_OMM_VERS" version="2.0">
<header><CREATION_DATE/><ORIGINATOR/></header><body><segment><metadata><OBJECT_NAME>ONEWEB-0675</OBJECT_NAME><OBJECT_ID>2023-029AQ</OBJECT_ID><CENTER_NAME>EARTH</CENTER_NAME><REF_FRAME>TEME</REF_FRAME><TIME_SYSTEM>UTC</TIME_SYSTEM><MEAN_ELEMENT_THEORY>SGP4</MEAN_ELEMENT_THEORY></metadata><data><meanElements><EPOCH>2023-10-25T14:30:33.772320</EPOCH><MEAN_MOTION>13.19727590</MEAN_MOTION><ECCENTRICITY>.0001182</ECCENTRICITY><INCLINATION>87.9108</INCLINATION><RA_OF_ASC_NODE>137.1546</RA_OF_ASC_NODE><ARG_OF_PERICENTER>88.0829</ARG_OF_PERICENTER><MEAN_ANOMALY>272.0439</MEAN_ANOMALY></meanElements><tleParameters><EPHEMERIS_TYPE>0</EPHEMERIS_TYPE><CLASSIFICATION_TYPE>U</CLASSIFICATION_TYPE><NORAD_CAT_ID>55834</NORAD_CAT_ID><ELEMENT_SET_NO>999</ELEMENT_SET_NO><REV_AT_EPOCH>3227</REV_AT_EPOCH><BSTAR>.2623E-3</BSTAR><MEAN_MOTION_DOT>.118E-5</MEAN_MOTION_DOT><MEAN_MOTION_DDOT>0</MEAN_MOTION_DDOT></tleParameters></data></segment></body></omm>
<omm id="CCSDS_OMM_VERS" version="2.0">
<header><CREATION_DATE/><ORIGINATOR/></header><body><segment><metadata><OBJECT_NAME>ONEWEB-0720</OBJECT_NAME><OBJECT_ID>2023-029AR</OBJECT_ID><CENTER_NAME>EARTH</CENTER_NAME><REF_FRAME>TEME</REF_FRAME><TIME_SYSTEM>UTC</TIME_SYSTEM><MEAN_ELEMENT_THEORY>SGP4</MEAN_ELEMENT_THEORY></metadata><data><meanElements><EPOCH>2023-10-25T14:19:11.635680</EPOCH><MEAN_MOTION>13.19722443</MEAN_MOTION><ECCENTRICITY>.0001903</ECCENTRICITY><INCLINATION>87.9093</INCLINATION><RA_OF_ASC_NODE>137.1589</RA_OF_ASC_NODE><ARG_OF_PERICENTER>68.2111</ARG_OF_PERICENTER><MEAN_ANOMALY>291.9224</MEAN_ANOMALY></meanElements><tleParameters><EPHEMERIS_TYPE>0</EPHEMERIS_TYPE><CLASSIFICATION_TYPE>U</CLASSIFICATION_TYPE><NORAD_CAT_ID>55835</NORAD_CAT_ID><ELEMENT_SET_NO>999</ELEMENT_SET_NO><REV_AT_EPOCH>3217</REV_AT_EPOCH><BSTAR>.10751E-2</BSTAR><MEAN_MOTION_DOT>.443E-5</MEAN_MOTION_DOT><MEAN_MOTION_DDOT>0</MEAN_MOTION_DDOT></tleParameters></data></segment></body></omm>
<omm id="CCSDS_OMM_VERS" version="2.0">
<header><CREATION_DATE/><ORIGINATOR/></header><body><segment><metadata><OBJECT_NAME>ONEWEB-0537</OBJECT_NAME><OBJECT_ID>2023-043A</OBJECT_ID><CENTER_NAME>EARTH</CENTER_NAME><REF_FRAME>TEME</REF_FRAME><TIME_SYSTEM>UTC</TIME_SYSTEM><MEAN_ELEMENT_THEORY>SGP4</MEAN_ELEMENT_THEORY></metadata><data><meanElements><EPOCH>2023-10-24T16:00:01.999584</EPOCH><MEAN_MOTION>13.99019142</MEAN_MOTION><ECCENTRICITY>.0001091</ECCENTRICITY><INCLINATION>87.4658</INCLINATION><RA_OF_ASC_NODE>62.2853</RA_OF_ASC_NODE><ARG_OF_PERICENTER>276.6406</ARG_OF_PERICENTER><MEAN_ANOMALY>31.5534</MEAN_ANOMALY></meanElements><tleParameters><EPHEMERIS_TYPE>0</EPHEMERIS_TYPE><CLASSIFICATION_TYPE>U</CLASSIFICATION_TYPE><NORAD_CAT_ID>56046</NORAD_CAT_ID><ELEMENT_SET_NO>999</ELEMENT_SET_NO><REV_AT_EPOCH>574</REV_AT_EPOCH><BSTAR>-.84358E+0</BSTAR><MEAN_MOTION_DOT>-.1150138E-1</MEAN_MOTION_DOT><MEAN_MOTION_DDOT>0</MEAN_MOTION_DDOT></tleParameters></data></segment></body></omm>

</ndm>
