ONEWEB-0670             
1 55829U 23029AK  23298.88736021  .00000475  00000+0  12479-2 0  9994
2 55829  87.8954 121.8642 0002276  74.4864 285.6517 13.14505786 33309
ONEWEB-0671             
1 55830U 23029AL  23298.61245661  .00003546  00000+0  88237-2 0  9999
2 55830  87.9191 137.1599 0001970  74.6226 285.5124 13.19711265 32230
ONEWEB-0672             
1 55831U 23029AM  23298.58334491  .00000014  00000+0  00000+0 0  9992
2 55831  87.9346 106.6486 0001568  47.4937 294.4551 13.36112517 34340
ONEWEB-0673             
1 55832U 23029AN  23298.58876324  .00000347  00000+0  83526-3 0  9996
2 55832  87.9089 137.1760 0002006  80.8417 279.2943 13.19729934 32253
ONEWEB-0674             
1 55833U 23029AP  23298.54681312 -.00000595  00000+0 -16526-2 0  9996
2 55833  87.8948 121.9470 0002564  78.9049 281.2369 13.13952544 33237
ONEWEB-0675             
1 55834U 23029AQ  23298.60455755  .00000118  00000+0  26230-3 0  9997
2 55834  87.9108 137.1546 0001182  88.0829 272.0439 13.19727590 32279
ONEWEB-0720             
1 55835U 23029AR  23298.59666245  .00000443  00000+0  10751-2 0  9995
2 55835  87.9093 137.1589 0001903  68.2111 291.9224 13.19722443 32178
ONEWEB-0537             
1 56046U 23043A   23297.66668981 -.01150138  00000+0 -84358+0 0  9993
2 56046  87.4658  62.2853 0001091 276.6406  31.5534 13.99019142  5745
